[{"OBJECT_NAME":"ONEWEB-0262","OBJECT_ID":"2021-060P","EPOCH":"2026-03-09T22:32:44.469312","MEAN_MOTION":13.16593742,"ECCENTRICITY":0.00019142,"INCLINATION":87.9003,"RA_OF_ASC_NODE":248.5097,"ARG_OF_PERICENTER":94.8576,"MEAN_ANOMALY":265.2774,"EPHEMERIS_TYPE":0,"CLASSIFICATION_TYPE":"U","NORAD_CAT_ID":48980,"ELEMENT_SET_NO":999,"REV_AT_EPOCH":22656,"BSTAR":0.00018040943,"MEAN_MOTION_DOT":8.2e-7,"MEAN_MOTION_DDOT":0},{"OBJECT_NAME":"DELTA 1 DEB","OBJECT_ID":"1977-065AK","EPOCH":"2026-03-09T06:43:30.506880","MEAN_MOTION":13.4186255,"ECCENTRICITY":0.05271587,"INCLINATION":29.2057,"RA_OF_ASC_NODE":41.8281,"ARG_OF_PERICENTER":90.994,"MEAN_ANOMALY":275.1033,"EPHEMERIS_TYPE":0,"CLASSIFICATION_TYPE":"U","NORAD_CAT_ID":10206,"ELEMENT_SET_NO":999,"REV_AT_EPOCH":30122,"BSTAR":0.0016941688,"MEAN_MOTION_DOT":2.259e-5,"MEAN_MOTION_DDOT":0}]
